[Satellite]
VERSION=1.1
NAME=OPTUS C1
NICKNAME=OPTUS C1
TLE1=1 27831U 03028B   15055.25571167 -.00000174  00000-0  00000+0 0  9996
TLE2=2 27831   0.0231 193.2185 0002282 111.0599  97.5591  1.00269976 42909
